     3.02           N: GNSS NAV DATA    G: GPS              RINEX VERSION / TYPE
Skytraq FW host     Skytraq Corp.       20250103 121115 UTC PGM / RUN BY / DATE
Skytraq FW kernel 1.100.38                                  COMMENT
Stq test version                                            COMMENT
GPSA    .2794e-07   .2235e-07  -.1192e-06   .5960e-07       IONOSPHERIC CORR
GPSB    .1516e+06  -.1966e+06  -.6554e+05   .3277e+06       IONOSPHERIC CORR
GPUT   .2793967724E-08  .266453526E-14  61440 1580          TIME SYSTEM CORR
    18                                                      LEAP SECONDS
                                                            END OF HEADER
G02 2005  5 20  8  0  0-2.768905833364e-04 9.094947017729e-12 0.000000000000e+00
     7.700000000000e+01 1.107500000000e+02 4.350895517976e-09 1.012466442823e+00
     5.461275577545e-06 1.654775254428e-02 8.616596460342e-06 5.153680360794e+03
     4.608000000000e+05 1.434236764908e-07-1.949333915296e+00-3.911554813385e-07
     9.664345302545e-01 2.155312500000e+02-1.062200004802e+00-8.139981920063e-09
     2.235807416067e-10 1.000000000000e+00 1.323000000000e+03 0.000000000000e+00
     2.400000000000e+00 0.000000000000e+00-1.769512891769e-08 7.700000000000e+01
     4.536060000000e+05 4.000000000000e+00
G26 2005  5 20  8  0  0-3.329943865538e-05-1.489297574153e-11 0.000000000000e+00
     3.100000000000e+01 5.656250000000e+00 5.576303704003e-09 2.708766769111e+00
     1.974403858185e-07 9.794243262149e-03 5.150213837623e-06 5.153746019363e+03
     4.608000000000e+05-4.284083843231e-08 2.238444968858e+00-1.098960638046e-07
     9.295823891349e-01 2.650937500000e+02 6.041204501673e-01-8.465709773649e-09
    -3.714440435639e-11 1.000000000000e+00 1.323000000000e+03 0.000000000000e+00
     2.400000000000e+00 0.000000000000e+00 6.519258022308e-09 3.100000000000e+01
     4.536060000000e+05 4.000000000000e+00
G09 2005  5 20  7 59 44 5.136472173035e-04 1.546140993014e-11 0.000000000000e+00
     2.200000000000e+01-1.330312500000e+02 4.418755487474e-09 1.452321929552e+00
    -7.009133696556e-06 3.196036675945e-03 8.510425686836e-06 5.153794422150e+03
     4.607840000000e+05 5.029141902923e-08 2.050376869741e-01-5.215406417847e-08
     9.607970291442e-01 2.117812500000e+02 2.032795246699e+00-8.054978379324e-09
    -2.407243128481e-10 1.000000000000e+00 1.323000000000e+03 0.000000000000e+00
     2.400000000000e+00 0.000000000000e+00 9.313225746155e-10 2.200000000000e+01
     4.536060000000e+05 4.000000000000e+00
G01 2005  5 20  8  0  0 1.588882878423e-05 3.512923285598e-11 0.000000000000e+00
     6.900000000000e+01 1.241562500000e+02 4.513402287036e-09 1.066259507383e+00
     6.407499313354e-06 2.135252580047e-04 7.076188921928e-06 5.153753177643e+03
     4.608000000000e+05 2.607703208923e-08-1.784567593740e+00-1.676380634308e-08
     9.596970303191e-01 2.431875000000e+02-1.270627998573e+00-8.197127157534e-09
     3.003696544589e-10 1.000000000000e+00 1.323000000000e+03 0.000000000000e+00
     2.400000000000e+00 6.300000000000e+01-1.396983861923e-09 6.900000000000e+01
     4.545960000000e+05 4.000000000000e+00
G07 2005  5 20  7 59 44-1.398660242558e-05 6.821210263297e-13 0.000000000000e+00
     2.000000000000e+00 2.187500000000e-01 4.560904265684e-09-1.879137410713e+00
    -7.450580596924e-08 1.890961779281e-02 1.014582812786e-05 5.153761220932e+03
     4.607840000000e+05 3.520399332046e-07 1.277521370967e+00-1.005828380585e-07
     9.500821153508e-01 1.736875000000e+02-2.085779532610e+00-7.668890868658e-09
     5.500229106619e-10 1.000000000000e+00 1.323000000000e+03 0.000000000000e+00
     2.400000000000e+00 0.000000000000e+00-1.071020960808e-08 2.000000000000e+00
     4.553760000000e+05 4.000000000000e+00
G16 2005  5 20  7 59 44-8.721277117729e-05 9.436007530894e-12 0.000000000000e+00
     0.000000000000e+00-4.750000000000e+00 4.894846747157e-09 1.893321233892e+00
    -4.451721906662e-07 1.446438150015e-02 6.021931767463e-06 5.153663576126e+03
     4.607840000000e+05-2.440065145492e-07 2.411705162480e+00-1.788139343262e-07
     9.602160239145e-01 2.676250000000e+02 8.659740205510e-01-8.198198630736e-09
    -2.339383158984e-10 1.000000000000e+00 1.323000000000e+03 0.000000000000e+00
     2.400000000000e+00 0.000000000000e+00-1.071020960808e-08 0.000000000000e+00
     4.559460000000e+05 4.000000000000e+00
G30 2005  5 20  8  0  0-2.474477514625e-04 8.299139153678e-12 0.000000000000e+00
     6.000000000000e+00-1.437500000000e+00 4.962706716654e-09-2.052009404394e+00
    -1.899898052216e-07 7.247380563058e-03 1.022219657898e-05 5.153755605698e+03
     4.608000000000e+05 7.636845111847e-08 1.274819564620e+00-6.146728992462e-08
     9.352535593047e-01 1.669375000000e+02-2.453780788653e+00-8.036763334880e-09
     5.264505002050e-10 1.000000000000e+00 1.323000000000e+03 0.000000000000e+00
     2.400000000000e+00 0.000000000000e+00 3.725290298462e-09 6.000000000000e+00
     4.578660000000e+05 4.000000000000e+00
G17 2005  5 20  8  0  0 4.912936128676e-04-1.693933882052e-11 0.000000000000e+00
     1.600000000000e+01 1.290625000000e+01 4.275535236061e-09 8.588444585704e-01
     6.221234798431e-07 1.337811513804e-02 1.060776412487e-05 5.153603851318e+03
     4.608000000000e+05-1.154839992523e-07-2.851452599543e+00-2.738088369369e-07
     9.659640616519e-01 1.769062500000e+02-1.245908571470e+00-8.046406593703e-09
    -4.482329564161e-10 1.000000000000e+00 1.323000000000e+03 0.000000000000e+00
     2.400000000000e+00 0.000000000000e+00-1.071020960808e-08 1.600000000000e+01
     4.603860000000e+05 4.000000000000e+00
G30 2005  5 20 10  0  0-2.473881468177e-04 8.299139153678e-12 0.000000000000e+00
     7.000000000000e+00 4.656250000000e+00 5.062353724495e-09-1.001979353650e+00
     1.713633537292e-07 7.247027358971e-03 1.041032373905e-05 5.153754154205e+03
     4.680000000000e+05 1.918524503708e-07 1.274762054385e+00 1.210719347000e-07
     9.352565304914e-01 1.628750000000e+02-2.453676969746e+00-8.187841056445e-09
     4.203746531488e-10 1.000000000000e+00 1.323000000000e+03 0.000000000000e+00
     2.400000000000e+00 0.000000000000e+00 3.725290298462e-09 7.000000000000e+00
     4.608060000000e+05 4.000000000000e+00
G16 2005  5 20  9 59 44-8.714431896806e-05 9.436007530894e-12 0.000000000000e+00
     2.300000000000e+01-3.281250000000e+00 4.821272253913e-09 2.943468051831e+00
    -2.887099981308e-07 1.446373714134e-02 5.422160029411e-06 5.153665224075e+03
     4.679840000000e+05 3.725290298462e-09 2.411647109502e+00-1.825392246246e-07
     9.602152909925e-01 2.738750000000e+02 8.660160560391e-01-7.992118618105e-09
    -2.325096849616e-10 1.000000000000e+00 1.323000000000e+03 0.000000000000e+00
     2.400000000000e+00 0.000000000000e+00-1.071020960808e-08 2.300000000000e+01
     4.608060000000e+05 4.000000000000e+00
G07 2005  5 20  9 59 44-1.398194581270e-05 6.821210263297e-13 0.000000000000e+00
     5.000000000000e+00 7.718750000000e+00 4.884489172865e-09-8.290435416312e-01
     5.010515451431e-07 1.890987134539e-02 1.039728522301e-05 5.153760055542e+03
     4.679840000000e+05-5.029141902923e-08 1.277465259281e+00 4.414469003677e-07
     9.500825849475e-01 1.740937500000e+02-2.085744579108e+00-8.338918778010e-09
     3.828730910582e-10 1.000000000000e+00 1.323000000000e+03 0.000000000000e+00
     2.400000000000e+00 0.000000000000e+00-1.071020960808e-08 5.000000000000e+00
     4.608060000000e+05 4.000000000000e+00
G21 2005  5 20 10  0  0 9.979074820876e-05 1.591615728103e-12 0.000000000000e+00
     4.900000000000e+01 1.282812500000e+02 4.241962409047e-09 1.765709849703e+00
     6.675720214844e-06 2.587636781391e-02 7.797032594681e-06 5.153628746033e+03
     4.680000000000e+05 1.993030309677e-07-1.957897466151e+00 2.998858690262e-07
     9.606805720876e-01 2.237812500000e+02-4.668542981954e-01-7.853541417237e-09
    -1.314340461842e-10 1.000000000000e+00 1.323000000000e+03 0.000000000000e+00
     2.400000000000e+00 0.000000000000e+00-1.024454832077e-08 4.900000000000e+01
     4.608060000000e+05 4.000000000000e+00
G27 2005  5 20 10  0  0-3.351829946041e-05 4.547473508865e-13 0.000000000000e+00
     8.000000000000e+01 1.290625000000e+01 4.299464804252e-09 2.021426469966e+00
     5.867332220077e-07 1.313131581992e-02 1.048482954502e-05 5.153690334320e+03
     4.680000000000e+05-2.421438694000e-07-2.921252669419e+00-1.415610313415e-07
     9.592210757737e-01 1.784062500000e+02 8.056127932122e-01-7.867827726605e-09
    -4.660908431259e-10 1.000000000000e+00 1.323000000000e+03 0.000000000000e+00
     2.400000000000e+00 0.000000000000e+00 1.862645149231e-09 8.000000000000e+01
     4.608060000000e+05 4.000000000000e+00
G02 2005  5 20 10  0  0-2.768253907561e-04 9.094947017729e-12 0.000000000000e+00
     7.800000000000e+01 1.255937500000e+02 4.111242678331e-09 2.062480350265e+00
     6.398186087608e-06 1.654792902991e-02 7.808208465576e-06 5.153685348511e+03
     4.680000000000e+05 2.421438694000e-07-1.949389694900e+00 6.705522537231e-08
     9.664371839879e-01 2.271250000000e+02-1.062041585404e+00-7.739608100029e-09
     6.607418082627e-11 1.000000000000e+00 1.323000000000e+03 0.000000000000e+00
     2.400000000000e+00 0.000000000000e+00-1.769512891769e-08 7.800000000000e+01
     4.608060000000e+05 4.000000000000e+00
G26 2005  5 20 10  0  0-3.340654075146e-05-1.489297574153e-11 0.000000000000e+00
     5.200000000000e+01 8.812500000000e+00 5.603447691802e-09-2.524273376153e+00
     4.135072231293e-07 9.793771314434e-03 5.066394805908e-06 5.153746904373e+03
     4.680000000000e+05 6.146728992462e-08 2.238383625777e+00-1.396983861923e-07
     9.295821009400e-01 2.661875000000e+02 6.041195358435e-01-8.509997332690e-09
     1.535778257043e-11 1.000000000000e+00 1.323000000000e+03 0.000000000000e+00
     2.400000000000e+00 0.000000000000e+00 6.519258022308e-09 5.200000000000e+01
     4.608060000000e+05 4.000000000000e+00
